start=new Date('2022-12-01T00:00:00.000Z').valueOf();
sats=[{"TLE_LINE2":"2 49423  53.2168 193.3194 0002432  44.0354 316.0831 15.08833874 58237","BSTAR":"0.00005668400000","MEAN_MOTION_DOT":"0.00000614","ARG_OF_PERICENTER":"44.0354","EPHEMERIS_TYPE":"0","MEAN_ELEMENT_THEORY":"SGP4","LAUNCH_DATE":"2021-11-13","DECAY_DATE":null,"SITE":"AFETR","ECCENTRICITY":"0.00024320","MEAN_MOTION":"15.08833874","PERIAPSIS":"538.082","RCS_SIZE":"LARGE","FILE":"3676429","TLE_LINE1":"1 49423U 21104R   22334.77414364  .00000614  00000-0  56684-4 0  9994","GP_ID":"219215852","EPOCH":"2022-11-30T18:34:46.010496","APOAPSIS":"541.447","SEMIMAJOR_AXIS":"6917.899","MEAN_MOTION_DDOT":"0.0000000000000","OBJECT_TYPE":"PAYLOAD","REF_FRAME":"TEME","NORAD_CAT_ID":"49423","ELEMENT_SET_NO":"999","CLASSIFICATION_TYPE":"U","COUNTRY_CODE":"US","OBJECT_ID":"2021-104R","INCLINATION":"53.2168","OBJECT_NAME":"STARLINK-3149","MEAN_ANOMALY":"316.0831","REV_AT_EPOCH":"5823","PERIOD":"95.438","RA_OF_ASC_NODE":"193.3194","TIME_SYSTEM":"UTC","CENTER_NAME":"EARTH"},{"EPOCH":"2022-11-30T17:15:16.963776","APOAPSIS":"541.108","SEMIMAJOR_AXIS":"6917.884","MEAN_MOTION_DDOT":"0.0000000000000","REF_FRAME":"TEME","OBJECT_TYPE":"PAYLOAD","NORAD_CAT_ID":"49424","ELEMENT_SET_NO":"999","CLASSIFICATION_TYPE":"U","OBJECT_ID":"2021-104S","COUNTRY_CODE":"US","INCLINATION":"53.2162","OBJECT_NAME":"STARLINK-3135","MEAN_ANOMALY":"314.6828","PERIOD":"95.438","REV_AT_EPOCH":"5822","RA_OF_ASC_NODE":"193.5609","TIME_SYSTEM":"UTC","CENTER_NAME":"EARTH","TLE_LINE2":"2 49424  53.2162 193.5609 0001964  45.4324 314.6828 15.08838863 58228","MEAN_MOTION_DOT":"0.00000120","ARG_OF_PERICENTER":"45.4324","BSTAR":"0.00002562900000","EPHEMERIS_TYPE":"0","MEAN_ELEMENT_THEORY":"SGP4","LAUNCH_DATE":"2021-11-13","DECAY_DATE":null,"SITE":"AFETR","ECCENTRICITY":"0.00019640","MEAN_MOTION":"15.08838863","PERIAPSIS":"538.390","FILE":"3676429","RCS_SIZE":"LARGE","TLE_LINE1":"1 49424U 21104S   22334.71894634  .00000120  00000-0  25629-4 0  9998","GP_ID":"219216600"},{"EPHEMERIS_TYPE":"0","MEAN_ELEMENT_THEORY":"SGP4","TLE_LINE2":"2 49425  53.2156 193.9266 0003447  35.1679 324.9540 15.08831773 58220","ARG_OF_PERICENTER":"35.1679","MEAN_MOTION_DOT":"-0.00001729","BSTAR":"-0.00009050100000","SITE":"AFETR","ECCENTRICITY":"0.00034470","LAUNCH_DATE":"2021-11-13","DECAY_DATE":null,"PERIAPSIS":"537.386","MEAN_MOTION":"15.08831773","TLE_LINE1":"1 49425U 21104T   22334.63799090 -.00001729  00000-0 -90501-4 0  9999","GP_ID":"219217352","FILE":"3676429","RCS_SIZE":"LARGE","APOAPSIS":"542.155","MEAN_MOTION_DDOT":"0.0000000000000","SEMIMAJOR_AXIS":"6917.906","EPOCH":"2022-11-30T15:18:42.413760","CLASSIFICATION_TYPE":"U","REF_FRAME":"TEME","OBJECT_TYPE":"PAYLOAD","NORAD_CAT_ID":"49425","ELEMENT_SET_NO":"999","OBJECT_NAME":"STARLINK-3139","INCLINATION":"53.2156","COUNTRY_CODE":"US","OBJECT_ID":"2021-104T","RA_OF_ASC_NODE":"193.9266","CENTER_NAME":"EARTH","TIME_SYSTEM":"UTC","PERIOD":"95.438","REV_AT_EPOCH":"5822","MEAN_ANOMALY":"324.9540"},{"MEAN_ANOMALY":"320.5328","CENTER_NAME":"EARTH","RA_OF_ASC_NODE":"193.8918","TIME_SYSTEM":"UTC","REV_AT_EPOCH":"5821","PERIOD":"95.437","INCLINATION":"53.2161","OBJECT_ID":"2021-104U","COUNTRY_CODE":"US","OBJECT_NAME":"STARLINK-3114","NORAD_CAT_ID":"49426","ELEMENT_SET_NO":"999","OBJECT_TYPE":"PAYLOAD","REF_FRAME":"TEME","CLASSIFICATION_TYPE":"U","EPOCH":"2022-11-30T15:29:16.722816","SEMIMAJOR_AXIS":"6917.857","MEAN_MOTION_DDOT":"0.0000000000000","APOAPSIS":"541.131","RCS_SIZE":"LARGE","FILE":"3676429","GP_ID":"219217591","TLE_LINE1":"1 49426U 21104U   22334.64533244  .00001388  00000-0  10525-3 0  9994","MEAN_MOTION":"15.08847734","PERIAPSIS":"538.313","DECAY_DATE":null,"LAUNCH_DATE":"2021-11-13","ECCENTRICITY":"0.00020370","SITE":"AFETR","MEAN_MOTION_DOT":"0.00001388","ARG_OF_PERICENTER":"39.5813","BSTAR":"0.00010525000000","TLE_LINE2":"2 49426  53.2161 193.8918 0002037  39.5813 320.5328 15.08847734 58211","MEAN_ELEMENT_THEORY":"SGP4","EPHEMERIS_TYPE":"0"},{"OBJECT_NAME":"STARLINK-3131","INCLINATION":"53.2156","OBJECT_ID":"2021-104V","COUNTRY_CODE":"US","TIME_SYSTEM":"UTC","RA_OF_ASC_NODE":"193.6487","CENTER_NAME":"EARTH","PERIOD":"95.438","REV_AT_EPOCH":"5823","MEAN_ANOMALY":"322.4385","MEAN_MOTION_DDOT":"0.0000000000000","SEMIMAJOR_AXIS":"6917.879","APOAPSIS":"541.744","EPOCH":"2022-11-30T16:48:46.995552","CLASSIFICATION_TYPE":"U","ELEMENT_SET_NO":"999","NORAD_CAT_ID":"49427","OBJECT_TYPE":"PAYLOAD","REF_FRAME":"TEME","PERIAPSIS":"537.745","MEAN_MOTION":"15.08840295","GP_ID":"219216351","TLE_LINE1":"1 49427U 21104V   22334.70054393  .00001278  00000-0  98415-4 0  9998","FILE":"3676429","RCS_SIZE":"LARGE","MEAN_ELEMENT_THEORY":"SGP4","EPHEMERIS_TYPE":"0","ARG_OF_PERICENTER":"37.6810","MEAN_MOTION_DOT":"0.00001278","BSTAR":"0.00009841500000","TLE_LINE2":"2 49427  53.2156 193.6487 0002890  37.6810 322.4385 15.08840295 58239","ECCENTRICITY":"0.00028900","SITE":"AFETR","DECAY_DATE":null,"LAUNCH_DATE":"2021-11-13"},{"COUNTRY_CODE":"US","OBJECT_ID":"2021-104W","INCLINATION":"53.2164","OBJECT_NAME":"STARLINK-3121","MEAN_ANOMALY":"320.9513","PERIOD":"95.438","REV_AT_EPOCH":"5821","RA_OF_ASC_NODE":"194.2857","TIME_SYSTEM":"UTC","CENTER_NAME":"EARTH","EPOCH":"2022-11-30T13:23:30.019776","APOAPSIS":"541.761","SEMIMAJOR_AXIS":"6917.901","MEAN_MOTION_DDOT":"0.0000000000000","OBJECT_TYPE":"PAYLOAD","REF_FRAME":"TEME","NORAD_CAT_ID":"49428","ELEMENT_SET_NO":"999","CLASSIFICATION_TYPE":"U","MEAN_MOTION":"15.08833179","PERIAPSIS":"537.772","FILE":"3675646","RCS_SIZE":"LARGE","GP_ID":"219175796","TLE_LINE1":"1 49428U 21104W   22334.55798634 -.00001022  00000-0 -46062-4 0  9995","TLE_LINE2":"2 49428  53.2164 194.2857 0002883  39.1687 320.9513 15.08833179 58215","MEAN_MOTION_DOT":"-0.00001022","ARG_OF_PERICENTER":"39.1687","BSTAR":"-0.00004606200000","EPHEMERIS_TYPE":"0","MEAN_ELEMENT_THEORY":"SGP4","LAUNCH_DATE":"2021-11-13","DECAY_DATE":null,"SITE":"AFETR","ECCENTRICITY":"0.00028830"},{"OBJECT_TYPE":"PAYLOAD","REF_FRAME":"TEME","ELEMENT_SET_NO":"999","NORAD_CAT_ID":"49430","CLASSIFICATION_TYPE":"U","EPOCH":"2022-11-30T16:43:29.521344","APOAPSIS":"541.516","SEMIMAJOR_AXIS":"6917.908","MEAN_MOTION_DDOT":"0.0000000000000","MEAN_ANOMALY":"317.6237","PERIOD":"95.438","REV_AT_EPOCH":"5823","RA_OF_ASC_NODE":"193.6679","CENTER_NAME":"EARTH","TIME_SYSTEM":"UTC","OBJECT_ID":"2021-104Y","COUNTRY_CODE":"US","INCLINATION":"53.2158","OBJECT_NAME":"STARLINK-3138","LAUNCH_DATE":"2021-11-13","DECAY_DATE":null,"SITE":"AFETR","ECCENTRICITY":"0.00025200","TLE_LINE2":"2 49430  53.2158 193.6679 0002520  42.4950 317.6237 15.08831043 58230","ARG_OF_PERICENTER":"42.4950","MEAN_MOTION_DOT":"-0.00001232","BSTAR":"-0.00005929900000","EPHEMERIS_TYPE":"0","MEAN_ELEMENT_THEORY":"SGP4","RCS_SIZE":"LARGE","FILE":"3676429","TLE_LINE1":"1 49430U 21104Y   22334.69686946 -.00001232  00000-0 -59299-4 0  9994","GP_ID":"219216852","MEAN_MOTION":"15.08831043","PERIAPSIS":"538.029"},{"DECAY_DATE":null,"LAUNCH_DATE":"2021-11-13","ECCENTRICITY":"0.00023310","SITE":"AFETR","ARG_OF_PERICENTER":"39.1473","MEAN_MOTION_DOT":"0.00000017","BSTAR":"0.00001916200000","TLE_LINE2":"2 49431  53.2174 196.8135 0002331  39.1473 320.9687 15.08825007 58121","MEAN_ELEMENT_THEORY":"SGP4","EPHEMERIS_TYPE":"0","RCS_SIZE":"LARGE","FILE":"3675646","TLE_LINE1":"1 49431U 21104Z   22333.99495640  .00000017  00000-0  19162-4 0  9999","GP_ID":"219176794","MEAN_MOTION":"15.08825007","PERIAPSIS":"538.179","ELEMENT_SET_NO":"999","NORAD_CAT_ID":"49431","REF_FRAME":"TEME","OBJECT_TYPE":"PAYLOAD","CLASSIFICATION_TYPE":"U","EPOCH":"2022-11-29T23:52:44.232960","MEAN_MOTION_DDOT":"0.0000000000000","SEMIMAJOR_AXIS":"6917.926","APOAPSIS":"541.404","MEAN_ANOMALY":"320.9687","REV_AT_EPOCH":"5812","PERIOD":"95.439","CENTER_NAME":"EARTH","RA_OF_ASC_NODE":"196.8135","TIME_SYSTEM":"UTC","OBJECT_ID":"2021-104Z","COUNTRY_CODE":"US","INCLINATION":"53.2174","OBJECT_NAME":"STARLINK-3153"},{"DECAY_DATE":null,"LAUNCH_DATE":"2021-11-13","ECCENTRICITY":"0.00039480","SITE":"AFETR","BSTAR":"0.00007474400000","MEAN_MOTION_DOT":"0.00000901","ARG_OF_PERICENTER":"34.0604","TLE_LINE2":"2 49432  53.2157 184.1015 0003948  34.0604 326.0641 15.08838557 58351","MEAN_ELEMENT_THEORY":"SGP4","EPHEMERIS_TYPE":"0","RCS_SIZE":"LARGE","FILE":"3675646","GP_ID":"219175546","TLE_LINE1":"1 49432U 21104AA  22334.59570329  .00000901  00000-0  74744-4 0  9994","MEAN_MOTION":"15.08838557","PERIAPSIS":"537.019","NORAD_CAT_ID":"49432","ELEMENT_SET_NO":"999","OBJECT_TYPE":"PAYLOAD","REF_FRAME":"TEME","CLASSIFICATION_TYPE":"U","EPOCH":"2022-11-30T14:17:48.764256","SEMIMAJOR_AXIS":"6917.885","MEAN_MOTION_DDOT":"0.0000000000000","APOAPSIS":"542.481","MEAN_ANOMALY":"326.0641","RA_OF_ASC_NODE":"184.1015","TIME_SYSTEM":"UTC","CENTER_NAME":"EARTH","PERIOD":"95.438","REV_AT_EPOCH":"5835","INCLINATION":"53.2157","COUNTRY_CODE":"US","OBJECT_ID":"2021-104AA","OBJECT_NAME":"STARLINK-3158"},{"MEAN_ANOMALY":"323.2242","REV_AT_EPOCH":"5960","PERIOD":"95.438","RA_OF_ASC_NODE":"173.5171","TIME_SYSTEM":"UTC","CENTER_NAME":"EARTH","COUNTRY_CODE":"US","OBJECT_ID":"2021-104AB","INCLINATION":"53.2166","OBJECT_NAME":"STARLINK-3079","OBJECT_TYPE":"PAYLOAD","REF_FRAME":"TEME","NORAD_CAT_ID":"49433","ELEMENT_SET_NO":"999","CLASSIFICATION_TYPE":"U","EPOCH":"2022-11-30T17:28:32.204064","APOAPSIS":"541.998","MEAN_MOTION_DDOT":"0.0000000000000","SEMIMAJOR_AXIS":"6917.883","RCS_SIZE":"LARGE","FILE":"3676429","TLE_LINE1":"1 49433U 21104AB  22334.72815051  .00000231  00000-0  32637-4 0  9995","GP_ID":"219216601","MEAN_MOTION":"15.08838993","PERIAPSIS":"537.499","LAUNCH_DATE":"2021-11-13","DECAY_DATE":null,"SITE":"AFETR","ECCENTRICITY":"0.00032520","TLE_LINE2":"2 49433  53.2166 173.5171 0003252  36.8974 323.2242 15.08838993 59604","ARG_OF_PERICENTER":"36.8974","MEAN_MOTION_DOT":"0.00000231","BSTAR":"0.00003263700000","EPHEMERIS_TYPE":"0","MEAN_ELEMENT_THEORY":"SGP4"}];
